{
  "type": "FeatureCollection",
  "features": [
    {
      "type": "Feature",
      "properties": {
        "norad_id": 31843,
        "name": "FENGYUN 1C DEB",
        "group": "fengyun-1c-debris",
        "lat": 18.42984975986757,
        "lon": 105.52986725056596,
        "alt_km": 1558.6516993877049,
        "timestamp": "2025-12-07T05:38:10.188420+00:00",
        "meta_object_name": "FENGYUN 1C DEB",
        "meta_object_id": "1999-025CJH",
        "meta_epoch": "2025-12-02T15:01:05.389248",
        "meta_mean_motion": 13.33462656,
        "meta_eccentricity": 0.06419114,
        "meta_inclination": 99.2813,
        "meta_ra_of_asc_node": 278.1993,
        "meta_arg_of_pericenter": 18.9524,
        "meta_mean_anomaly": 343.4355,
        "meta_ephemeris_type": 0,
        "meta_classification_type": "U",
        "meta_norad_cat_id": 31843,
        "meta_element_set_no": 999,
        "meta_rev_at_epoch": 64561,
        "meta_bstar": 0.0084044243,
        "meta_mean_motion_dot": 0.00013435,
        "meta_mean_motion_ddot": 0,
        "tle_line1": "1 31843U 99025CJH 25336.62575682  .00013435  00000+0  84044-2 0  9991",
        "tle_line2": "2 31843  99.2813 278.1993 0641911  18.9524 343.4355 13.33462656645611"
      },
      "geometry": {
        "type": "Point",
        "coordinates": [
          105.52986725056596,
          18.42984975986757
        ]
      }
    },
    {
      "type": "Feature",
      "properties": {
        "norad_id": 31844,
        "name": "FENGYUN 1C DEB",
        "group": "fengyun-1c-debris",
        "lat": -2.6855016726603655,
        "lon": -30.503085289861197,
        "alt_km": 755.501163486364,
        "timestamp": "2025-12-07T05:38:10.188430+00:00",
        "meta_object_name": "FENGYUN 1C DEB",
        "meta_object_id": "1999-025CJJ",
        "meta_epoch": "2025-12-05T16:26:18.157632",
        "meta_mean_motion": 14.19699269,
        "meta_eccentricity": 0.01038989,
        "meta_inclination": 100.302,
        "meta_ra_of_asc_node": 327.2073,
        "meta_arg_of_pericenter": 10.2041,
        "meta_mean_anomaly": 350.1206,
        "meta_ephemeris_type": 0,
        "meta_classification_type": "U",
        "meta_norad_cat_id": 31844,
        "meta_element_set_no": 999,
        "meta_rev_at_epoch": 95232,
        "meta_bstar": 0.001318582,
        "meta_mean_motion_dot": 2.887e-05,
        "meta_mean_motion_ddot": 0,
        "tle_line1": "1 31844U 99025CJJ 25339.68493238  .00002887  00000+0  13186-2 0  9995",
        "tle_line2": "2 31844 100.3020 327.2073 0103898  10.2041 350.1206 14.19699269952323"
      },
      "geometry": {
        "type": "Point",
        "coordinates": [
          -30.503085289861197,
          -2.6855016726603655
        ]
      }
    },
    {
      "type": "Feature",
      "properties": {
        "norad_id": 31850,
        "name": "FENGYUN 1C DEB",
        "group": "fengyun-1c-debris",
        "lat": 32.88344767513495,
        "lon": -149.4619359182946,
        "alt_km": 425.9754102244797,
        "timestamp": "2025-12-07T05:38:10.188440+00:00",
        "meta_object_name": "FENGYUN 1C DEB",
        "meta_object_id": "1999-025CJQ",
        "meta_epoch": "2025-12-04T09:33:59.141088",
        "meta_mean_motion": 15.30779528,
        "meta_eccentricity": 0.00801285,
        "meta_inclination": 98.5747,
        "meta_ra_of_asc_node": 21.663,
        "meta_arg_of_pericenter": 118.0114,
        "meta_mean_anomaly": 242.9259,
        "meta_ephemeris_type": 0,
        "meta_classification_type": "U",
        "meta_norad_cat_id": 31850,
        "meta_element_set_no": 999,
        "meta_rev_at_epoch": 65701,
        "meta_bstar": 0.0051142134,
        "meta_mean_motion_dot": 0.00171209,
        "meta_mean_motion_ddot": 0,
        "tle_line1": "1 31850U 99025CJQ 25338.39860117  .00171209  00000+0  51142-2 0  9992",
        "tle_line2": "2 31850  98.5747  21.6630 0080128 118.0114 242.9259 15.30779528657011"
      },
      "geometry": {
        "type": "Point",
        "coordinates": [
          -149.4619359182946,
          32.88344767513495
        ]
      }
    },
    {
      "type": "Feature",
      "properties": {
        "norad_id": 31854,
        "name": "FENGYUN 1C DEB",
        "group": "fengyun-1c-debris",
        "lat": -77.87947449988471,
        "lon": 31.078036693057136,
        "alt_km": 918.0866245519419,
        "timestamp": "2025-12-07T05:38:10.188451+00:00",
        "meta_object_name": "FENGYUN 1C DEB",
        "meta_object_id": "1999-025CJU",
        "meta_epoch": "2025-12-06T06:04:08.066496",
        "meta_mean_motion": 14.03062166,
        "meta_eccentricity": 0.00721571,
        "meta_inclination": 98.8471,
        "meta_ra_of_asc_node": 343.6356,
        "meta_arg_of_pericenter": 158.9744,
        "meta_mean_anomaly": 201.4415,
        "meta_ephemeris_type": 0,
        "meta_classification_type": "U",
        "meta_norad_cat_id": 31854,
        "meta_element_set_no": 999,
        "meta_rev_at_epoch": 69181,
        "meta_bstar": 0.00051223509,
        "meta_mean_motion_dot": 7.72e-06,
        "meta_mean_motion_ddot": 0,
        "tle_line1": "1 31854U 99025CJU 25340.25287114  .00000772  00000+0  51224-3 0  9992",
        "tle_line2": "2 31854  98.8471 343.6356 0072157 158.9744 201.4415 14.03062166691811"
      },
      "geometry": {
        "type": "Point",
        "coordinates": [
          31.078036693057136,
          -77.87947449988471
        ]
      }
    },
    {
      "type": "Feature",
      "properties": {
        "norad_id": 31857,
        "name": "FENGYUN 1C DEB",
        "group": "fengyun-1c-debris",
        "lat": 43.55256538764814,
        "lon": -161.27265463908213,
        "alt_km": 1241.1791764927611,
        "timestamp": "2025-12-07T05:38:10.188460+00:00",
        "meta_object_name": "FENGYUN 1C DEB",
        "meta_object_id": "1999-025CJX",
        "meta_epoch": "2025-12-01T20:13:56.835552",
        "meta_mean_motion": 13.61858254,
        "meta_eccentricity": 0.03084927,
        "meta_inclination": 96.1896,
        "meta_ra_of_asc_node": 9.3724,
        "meta_arg_of_pericenter": 312.5702,
        "meta_mean_anomaly": 44.9786,
        "meta_ephemeris_type": 0,
        "meta_classification_type": "U",
        "meta_norad_cat_id": 31857,
        "meta_element_set_no": 999,
        "meta_rev_at_epoch": 61481,
        "meta_bstar": 0.0021184073,
        "meta_mean_motion_dot": 2.215e-05,
        "meta_mean_motion_ddot": 0,
        "tle_line1": "1 31857U 99025CJX 25335.84301893  .00002215  00000+0  21184-2 0  9990",
        "tle_line2": "2 31857  96.1896   9.3724 0308492 312.5702  44.9786 13.61858254614817"
      },
      "geometry": {
        "type": "Point",
        "coordinates": [
          -161.27265463908213,
          43.55256538764814
        ]
      }
    },
    {
      "type": "Feature",
      "properties": {
        "norad_id": 31861,
        "name": "FENGYUN 1C DEB",
        "group": "fengyun-1c-debris",
        "lat": 8.866262887969539,
        "lon": 170.80689309713583,
        "alt_km": 1473.6034999307903,
        "timestamp": "2025-12-07T05:38:10.188470+00:00",
        "meta_object_name": "FENGYUN 1C DEB",
        "meta_object_id": "1999-025CKB",
        "meta_epoch": "2025-11-30T18:20:57.621120",
        "meta_mean_motion": 13.30200627,
        "meta_eccentricity": 0.04966148,
        "meta_inclination": 102.3423,
        "meta_ra_of_asc_node": 165.0071,
        "meta_arg_of_pericenter": 230.9853,
        "meta_mean_anomaly": 124.6046,
        "meta_ephemeris_type": 0,
        "meta_classification_type": "U",
        "meta_norad_cat_id": 31861,
        "meta_element_set_no": 999,
        "meta_rev_at_epoch": 66608,
        "meta_bstar": 0.0034105388,
        "meta_mean_motion_dot": 3.105e-05,
        "meta_mean_motion_ddot": 0,
        "tle_line1": "1 31861U 99025CKB 25334.76455580  .00003105  00000+0  34105-2 0  9994",
        "tle_line2": "2 31861 102.3423 165.0071 0496614 230.9853 124.6046 13.30200627666089"
      },
      "geometry": {
        "type": "Point",
        "coordinates": [
          170.80689309713583,
          8.866262887969539
        ]
      }
    },
    {
      "type": "Feature",
      "properties": {
        "norad_id": 31877,
        "name": "FENGYUN 1C DEB",
        "group": "fengyun-1c-debris",
        "lat": 41.63418375814237,
        "lon": 42.482717830217084,
        "alt_km": 578.1002795132308,
        "timestamp": "2025-12-07T05:38:10.188480+00:00",
        "meta_object_name": "FENGYUN 1C DEB",
        "meta_object_id": "1999-025CKC",
        "meta_epoch": "2025-12-06T03:51:20.659392",
        "meta_mean_motion": 15.01276016,
        "meta_eccentricity": 0.0104316,
        "meta_inclination": 99.003,
        "meta_ra_of_asc_node": 49.3406,
        "meta_arg_of_pericenter": 300.3775,
        "meta_mean_anomaly": 58.7164,
        "meta_ephemeris_type": 0,
        "meta_classification_type": "U",
        "meta_norad_cat_id": 31877,
        "meta_element_set_no": 999,
        "meta_rev_at_epoch": 98943,
        "meta_bstar": 0.0012083638,
        "meta_mean_motion_dot": 0.00017406,
        "meta_mean_motion_ddot": 0,
        "tle_line1": "1 31877U 99025CKC 25340.16065578  .00017406  00000+0  12084-2 0  9997",
        "tle_line2": "2 31877  99.0030  49.3406 0104316 300.3775  58.7164 15.01276016989438"
      },
      "geometry": {
        "type": "Point",
        "coordinates": [
          42.482717830217084,
          41.63418375814237
        ]
      }
    }
  ]
}